0 COSMOS 1349
1 13127U 82030A   13282.06824520  .00000029  00000-0  14874-4 0  8369
2 13127 082.9327 354.5199 0030008 336.8444 067.3964 13.73686002579277
0 COSMOS 1349
1 13127U 82030A   13283.38024895  .00000036  00000-0  22282-4 0  8373
2 13127 082.9326 353.5487 0029930 333.0738 075.7286 13.73686046579450
0 COSMOS 1349
1 13127U 82030A   13285.80071021  .00000057  00000-0  44623-4 0  8393
2 13127 082.9323 351.7570 0029806 326.1392 165.7611 13.73685892579787
0 COSMOS 1349
1 13127U 82030A   13286.82153442  .00000068  00000-0  56497-4 0  8400
2 13127 082.9320 351.0014 0029776 323.1754 174.1353 13.73685920579920
0 COSMOS 1349
1 13127U 82030A   13288.18816668  .00000079  00000-0  68325-4 0  8413
2 13127 082.9317 349.9898 0029734 319.2048 092.6672 13.73686189580117
0 COSMOS 1349
1 13127U 82030A   13289.35335043  .00000064  00000-0  52815-4 0  8428
2 13127 082.9314 349.1272 0029705 315.8162 094.9617 13.73686345580274
0 COSMOS 1349
1 13127U 82030A   13290.61169047  .00000054  00000-0  42041-4 0  8438
2 13127 082.9311 348.1956 0029675 312.1754 197.9322 13.73686436580449
0 COSMOS 1349
1 13127U 82030A   13292.19440862  .00000043  00000-0  29776-4 0  8449
2 13127 082.9308 347.0236 0029608 307.5949 105.0784 13.73686797580660
0 COSMOS 1349
1 13127U 82030A   13293.52218604  .00000052  00000-0  39448-4 0  8452
2 13127 082.9307 346.0404 0029549 303.7443 191.4556 13.73686920580840
0 COSMOS 1349
1 13127U 82030A   13294.54363788  .00000036  00000-0  23059-4 0  8463
2 13127 082.9307 345.2840 0029554 300.7664 202.9482 13.73686940580986
0 COSMOS 1349
1 13127U 82030A   13295.63049398  .00000045  00000-0  31959-4 0  8471
2 13127 082.9306 344.4792 0029537 297.5994 177.8908 13.73687029581132
